[{"OBJECT_NAME":"SHIKONGXING 01","OBJECT_ID":"2025-214A","EPOCH":"2026-03-09T23:27:22.281408","MEAN_MOTION":14.92356791,"ECCENTRICITY":0.00132612,"INCLINATION":49.9863,"RA_OF_ASC_NODE":40.3934,"ARG_OF_PERICENTER":224.4244,"MEAN_ANOMALY":135.5635,"EPHEMERIS_TYPE":0,"CLASSIFICATION_TYPE":"U","NORAD_CAT_ID":65712,"ELEMENT_SET_NO":999,"REV_AT_EPOCH":2488,"BSTAR":0.00036752052,"MEAN_MOTION_DOT":3.562e-5,"MEAN_MOTION_DDOT":0},{"OBJECT_NAME":"SENTINEL-1B","OBJECT_ID":"2016-025A","EPOCH":"2026-03-09T22:22:55.750080","MEAN_MOTION":14.98768491,"ECCENTRICITY":0.00163778,"INCLINATION":98.1047,"RA_OF_ASC_NODE":125.8491,"ARG_OF_PERICENTER":100.1359,"MEAN_ANOMALY":260.1711,"EPHEMERIS_TYPE":0,"CLASSIFICATION_TYPE":"U","NORAD_CAT_ID":41456,"ELEMENT_SET_NO":999,"REV_AT_EPOCH":52891,"BSTAR":0.00015358389,"MEAN_MOTION_DOT":1.79e-5,"MEAN_MOTION_DDOT":0}]
